{
  "type": "FeatureCollection",
  "name": "Thailand Simplified",
  "crs": { "type": "name", "properties": { "name": "urn:ogc:def:crs:OGC:1.3:CRS84" } },
  "features": [
    {
      "type": "Feature",
      "id": "North",
      "properties": { "reg_royin": "North", "RE_NESDB": 1, "RE_ROYIN": 1, "AREA": 169644.3 },
      "geometry": { "type": "MultiPolygon", "coordinates": [ [ [ [ 99.4697, 20.4837 ], [ 100.2797, 20.4837 ], [ 100.5697, 20.2837 ], [ 101.0397, 20.0137 ], [ 100.9097, 19.6437 ], [ 101.3897, 19.2637 ], [ 101.3697, 18.9137 ], [ 101.3197, 18.4237 ], [ 101.0297, 18.0637 ], [ 101.0997, 17.4337 ], [ 101.3197, 16.8237 ], [ 100.9997, 16.2737 ], [ 100.5297, 16.1437 ], [ 100.1797, 15.9337 ], [ 100.0297, 15.3437 ], [ 99.4597, 15.5137 ], [ 99.0497, 16.0137 ], [ 98.7197, 16.7137 ], [ 98.3497, 17.3837 ], [ 98.0297, 18.2337 ], [ 97.6197, 19.0137 ], [ 97.9497, 19.6437 ], [ 98.7897, 19.9237 ], [ 99.3797, 20.0837 ], [ 99.4697, 20.4837 ] ] ] ] }
    },
    {
      "type": "Feature",
      "id": "Northeast",
      "properties": { "reg_royin": "Northeast", "RE_NESDB": 2, "RE_ROYIN": 2, "AREA": 168855.3 },
      "geometry": { "type": "MultiPolygon", "coordinates": [ [ [ [ 101.7897, 18.5337 ], [ 102.5997, 17.3937 ], [ 103.4997, 17.9137 ], [ 104.5997, 17.8437 ], [ 105.4797, 17.4837 ], [ 105.6997, 16.7137 ], [ 105.1197, 15.9337 ], [ 105.4397, 14.9337 ], [ 104.5897, 14.4337 ], [ 103.4497, 14.1737 ], [ 102.6097, 12.9837 ], [ 102.7397, 11.7237 ], [ 101.7997, 12.4437 ], [ 101.1197, 13.5637 ], [ 101.7297, 14.2337 ], [ 102.8397, 14.5337 ], [ 102.9497, 15.5237 ], [ 102.2697, 15.8237 ], [ 101.8197, 16.4237 ], [ 101.2197, 16.9637 ], [ 100.8297, 17.9537 ], [ 101.3697, 18.5237 ], [ 101.7897, 18.5337 ] ] ] ] }
    },
    {
      "type": "Feature",
      "id": "Central",
      "properties": { "reg_royin": "Central", "RE_NESDB": 3, "RE_ROYIN": 3, "AREA": 91795.1 },
      "geometry": { "type": "MultiPolygon", "coordinates": [ [ [ [ 100.2797, 15.6537 ], [ 100.8397, 15.5137 ], [ 101.1697, 15.1137 ], [ 101.7997, 15.0837 ], [ 102.0997, 14.6137 ], [ 101.6297, 14.0737 ], [ 101.4497, 13.6137 ], [ 100.8697, 13.0137 ], [ 100.8597, 12.5637 ], [ 99.8597, 13.2337 ], [ 99.1997, 13.7837 ], [ 99.2797, 14.8337 ], [ 99.7897, 15.3637 ], [ 100.2797, 15.6537 ] ] ] ] }
    },
    {
      "type": "Feature",
      "id": "East",
      "properties": { "reg_royin": "East", "RE_NESDB": 4, "RE_ROYIN": 4, "AREA": 34389.9 },
      "geometry": { "type": "MultiPolygon", "coordinates": [ [ [ [ 100.9997, 12.5837 ], [ 100.8697, 13.0137 ], [ 101.7997, 12.4437 ], [ 102.5197, 11.6637 ], [ 102.5997, 11.9537 ], [ 102.6097, 12.9837 ], [ 103.0897, 13.5637 ], [ 102.2397, 14.3437 ], [ 101.7297, 14.2337 ], [ 101.1197, 13.5637 ], [ 100.9997, 12.5837 ] ] ] ] }
    },
    {
      "type": "Feature",
      "id": "West",
      "properties": { "reg_royin": "West", "RE_NESDB": 6, "RE_ROYIN": 6, "AREA": 53679.0 },
      "geometry": { "type": "MultiPolygon", "coordinates": [ [ [ [ 99.1997, 13.7837 ], [ 99.9897, 13.2337 ], [ 99.4997, 12.1837 ], [ 98.5997, 10.8137 ], [ 99.0697, 9.4237 ], [ 99.8197, 8.1337 ], [ 98.3997, 14.1237 ], [ 98.9397, 14.9537 ], [ 99.0497, 16.0137 ], [ 98.5397, 16.8137 ], [ 98.0297, 18.2337 ], [ 97.9497, 19.6437 ], [ 99.3797, 20.0837 ], [ 99.7197, 15.1137 ], [ 99.1597, 14.0237 ], [ 99.1997, 13.7837 ] ] ] ] }
    },
    {
      "type": "Feature",
      "id": "South",
      "properties": { "reg_royin": "South", "RE_NESDB": 5, "RE_ROYIN": 5, "AREA": 70715.2 },
      "geometry": { "type": "MultiPolygon", "coordinates": [ [ [ [ 100.1797, 12.9837 ], [ 99.3197, 13.5037 ], [ 98.3997, 14.1237 ], [ 98.4197, 7.4937 ], [ 99.3297, 7.8237 ], [ 99.5097, 9.1637 ], [ 98.6397, 10.2237 ], [ 99.2597, 11.7537 ], [ 100.1797, 12.9837 ] ] ] ] }
  ]
}
